[{"OBJECT_NAME":"STARLINK-2754","OBJECT_ID":"2021-044D","EPOCH":"2026-03-09T12:44:53.857824","MEAN_MOTION":15.30198326,"ECCENTRICITY":0.00013511,"INCLINATION":53.1598,"RA_OF_ASC_NODE":114.6224,"ARG_OF_PERICENTER":80.6419,"MEAN_ANOMALY":279.4735,"EPHEMERIS_TYPE":0,"CLASSIFICATION_TYPE":"U","NORAD_CAT_ID":48641,"ELEMENT_SET_NO":999,"REV_AT_EPOCH":26380,"BSTAR":-3.3018635e-5,"MEAN_MOTION_DOT":-1.337e-5,"MEAN_MOTION_DDOT":0},{"OBJECT_NAME":"PHISAT 2","OBJECT_ID":"2024-149C","EPOCH":"2026-03-09T18:55:12.732384","MEAN_MOTION":15.29548632,"ECCENTRICITY":0.00011753,"INCLINATION":97.3806,"RA_OF_ASC_NODE":148.6498,"ARG_OF_PERICENTER":168.623,"MEAN_ANOMALY":191.5037,"EPHEMERIS_TYPE":0,"CLASSIFICATION_TYPE":"U","NORAD_CAT_ID":60470,"ELEMENT_SET_NO":999,"REV_AT_EPOCH":8679,"BSTAR":0.00031420974,"MEAN_MOTION_DOT":8.925e-5,"MEAN_MOTION_DDOT":0}]
