STARLINK-2754           
1 48641U 21044D   26068.53117891 -.00001337  00000+0 -33019-4 0  9996
2 48641  53.1598 114.6224 0001351  80.6419 279.4735 15.30198326263808
PHISAT 2                
1 60470U 24149C   26068.78834181  .00008925  00000+0  31421-3 0  9996
2 60470  97.3806 148.6498 0001175 168.6230 191.5037 15.29548631 86792
